[{"OBJECT_NAME":"STARLINK-5745","OBJECT_ID":"2023-020G","EPOCH":"2026-03-09T04:53:25.997568","MEAN_MOTION":15.02575392,"ECCENTRICITY":0.00014116,"INCLINATION":43.0042,"RA_OF_ASC_NODE":7.5,"ARG_OF_PERICENTER":274.2278,"MEAN_ANOMALY":85.8403,"EPHEMERIS_TYPE":0,"CLASSIFICATION_TYPE":"U","NORAD_CAT_ID":55575,"ELEMENT_SET_NO":999,"REV_AT_EPOCH":16884,"BSTAR":-0.00061955432,"MEAN_MOTION_DOT":-8.571e-5,"MEAN_MOTION_DDOT":0},{"OBJECT_NAME":"CZ-2D DEB","OBJECT_ID":"2017-060B","EPOCH":"2026-03-09T14:15:36.855648","MEAN_MOTION":14.99543568,"ECCENTRICITY":0.002893,"INCLINATION":97.5408,"RA_OF_ASC_NODE":90.0945,"ARG_OF_PERICENTER":284.1616,"MEAN_ANOMALY":75.6394,"EPHEMERIS_TYPE":0,"CLASSIFICATION_TYPE":"U","NORAD_CAT_ID":44609,"ELEMENT_SET_NO":999,"REV_AT_EPOCH":45025,"BSTAR":0.00057261,"MEAN_MOTION_DOT":7.042e-5,"MEAN_MOTION_DDOT":0}]
